Name,Address,City,State,Zip,Large or Small
Albertsons,2550 32nd Ave W,Seattle,WA,98199,Large
Albertsons,13050 Aurora Ave N,Seattle,WA,98133,Large
Arby's,2505 4th Ave,Seattle,WA,98121,Large
Arby's,10733 Meridian Ave N,Seattle,WA,98133,Large
Arby's,2425 4th Ave S,Seattle,WA,98134,Large
Arby's,601 S Michigan St,Seattle,WA,98108,Large
Blue Water Taco Grill,1501 4th Ave,Seattle,WA,98101,Small
Blue Water Taco Grill,1000 2nd Ave,Seattle,WA,98104,Small
Blue Water Taco Grill,1001 4th Ave,Seattle,WA,98154,Small
Blue Water Taco Grill,1213 Madison St,Seattle,WA,98104,Small
Blue Water Taco Grill,1730 Minor Ave,Seattle,WA,98101,Small
Blue Water Taco Grill,2962 1st Ave S,Seattle,WA,98134,Small
Blue Water Taco Grill,515 Union St,Seattle,WA,98101,Small
Blue Water Taco Grill,600 University St,Seattle,WA,98101,Small
Burger King,13241 Aurora Ave N,Seattle,WA,98133,Large
Burger King,1432 NW Market St,Seattle,WA,98107,Large
Burger King,14340 15th Ave NE,Seattle,WA,98125,Large
Burger King,2021 Rainier Ave S,Seattle,WA,98144,Large
Burger King,3301 4th Ave S,Seattle,WA,98134,Large
Caffe Appassionato,801 Alaskan Way,Seattle,WA,98104,
Caffe Appassionato,4001 21st Ave W,Seattle,WA,98199,
Caffe Appassionato,1218 N 45th St,Seattle,WA,98103,
Caffe Ladro,108 Union St,Seattle,WA,98101,Small
Caffe Ladro,1800 9th Ave,Seattle,WA,98101,Small
Caffe Ladro,7011 California Ave SW,Seattle,WA,98136,Small
Caffe Ladro,2205 Queen Anne Ave N,Seattle,WA,98109,Small
Caffe Ladro,435 15th Ave E,Seattle,WA,98112,Small
Caffe Ladro,452 N 36th St,Seattle,WA,98103,Small
Caffe Ladro,600 Queen Anne Ave N,Seattle,WA,98109,Small
Caffe Ladro,801 Pine St,Seattle,WA,98101,Small
Caffe Vita,1005 E Pike St,Seattle,WA,98122,Small
Caffe Vita,125 Prefontaine Pl S,Seattle,WA,98104,Small
Caffe Vita,4301 Fremont Ave N,Seattle,WA,98103,Small
Caffe Vita,5028 Wilson Ave S,Seattle,WA,98118,Small
Caffe Vita,7402 Greenwood Ave N,Seattle,WA,98103,Small
Caffe Vita,813 5th Ave N,Seattle,WA,98109,Small
Cherry Street Coffee,103 Cherry St,Seattle,WA,98104,Small
Cherry Street Coffee,1212 1st Ave,Seattle,WA,98101,Small
Cherry Street Coffee,12th & Cherry St,Seattle,WA,98122,Small
Cherry Street Coffee,2121 1st Ave,Seattle,WA,98121,Small
Cherry Street Coffee,2719 1st Ave,Seattle,WA,98121,Small
Cherry Street Coffee,& 5th Denny,Seattle,WA,98109,Small
Cherry Street Coffee,808 3rd Ave,Seattle,WA,98104,Small
Chipotle Mexican Grill,1415 Broadway,Seattle,WA,98122,Large
Chipotle Mexican Grill,1501 3rd Ave # 114,Seattle,WA,98101,Large
Chipotle Mexican Grill,401 NE Northgate Way Spc 1119,Seattle,WA,98125,Large
Chipotle Mexican Grill,4229 University Way NE,Seattle,WA,98105,Large
Costco,4401 4th Ave S,Seattle,WA,98134,Large
Cupcake Royale,108 Pine St,Seattle,WA,98101,Small
Cupcake Royale,1101 34th Ave,Seattle,WA,98122,Small
Cupcake Royale,1111 E Pike St,Seattle,WA,98122,Small
Cupcake Royale,2052 NW Market St,Seattle,WA,98107,Small
Cupcake Royale,4556 California Ave SW,Seattle,WA,98116,Small
Custom Smoothie,719 2nd Ave,Seattle,WA,98104,Small
Custom Smoothie,462 N 34th St,Seattle,WA,98103,Small
Custom Smoothie,428 Westlake Ave N Ste 102,Seattle,WA,98109,Small
Domino's Pizza,1427 Broadway,Seattle,WA,98122,Large
Domino's Pizza,2724 NE 45th St Ste A,Seattle,WA,98105,Large
Domino's Pizza,302 N 125th St,Seattle,WA,98133,Large
Domino's Pizza,4436 Rainier Ave S,Seattle,WA,98118,Large
Domino's Pizza,6540 California Ave SW,Seattle,WA,98136,Large
Domino's Pizza,714 Taylor Ave N,Seattle,WA,98109,Large
Domino's Pizza,8345 15th Ave NW,Seattle,WA,98117,Large
Emerald City Smoothie,1202 Stewart St,Seattle,WA,98101,
Emerald City Smoothie,13244 Aurora Ave N,Seattle,WA,98133,
Emerald City Smoothie,1620 Broadway,Seattle,WA,98122,
Emerald City Smoothie,1825 Queen Anne Ave N,Seattle,WA,98109,
Emerald City Smoothie,2629 SW Andover St,Seattle,WA,98126,
Emerald City Smoothie,400 Pine St Ste 305,Seattle,WA,98101,
Emerald City Smoothie,428 Broadway E,Seattle,WA,98102,
Emerald City Smoothie,701 5th Ave Ste 205,Seattle,WA,98104,
Espresso Vivace,227 Yale Ave N,Seattle,WA,98109,
Espresso Vivace,321 Broadway E,Seattle,WA,98102,
Espresso Vivace,532 Broadway E,Seattle,WA,98102,
Five Guys,311 NE 103rd St,Seattle,WA,98125,Large
Five Guys,1500 NW Market St,Seattle,WA,98107,Large
Forever 21,401 NE Northgate Way 1104,Seattle,WA,98125,Large
Forever 21,601 Pine St,Seattle,WA,98101,Large
Fred Meyer,915 NW 45th St,Seattle,WA,98107,Large
Fred Meyer,100 NW 85th St,Seattle,WA,98117,Large
Fred Meyer,13000 Lake City Way NE,Seattle,WA,98125,Large
Fuel Coffee,1705 N 45th St,Seattle,WA,98103,Small
Fuel Coffee,2300 24th Ave E,Seattle,WA,98112,Small
Fuel Coffee,610 19th Ave E,Seattle,WA,98112,Small
Gap,1530 5th Ave,Seattle,WA,98101,Large
Gap,4625 27th Ave NE,Seattle,WA,98105,Large
Gap,401 NE Northgate Way,Seattle,WA,98125,Large
H&M,520 Pike St,Seattle,WA,98101,Large
H&M,2604 NE University Village St,Seattle,WA,98105,Large
Herkimer Coffee,5611 University Way NE,Seattle,WA,98105,Small
Herkimer Coffee,7320 Greenwood Ave N,Seattle,WA,98103,Small
Herkimer Coffee,901 Dexter Avenue N,Seattle,WA,98109,Small
Home Depot,11616 Aurora Ave N,Seattle,WA,98133,Large
Home Depot,2701 Utah Ave S,Seattle,WA,98134,Large
Home Depot,7345 Delridge Way SW,Seattle,WA,98106,Large
IHOP,950 E Madison St,Seattle,WA,98122,Large
IHOP,10002 Aurora Ave N,Seattle,WA,98133,Large
Ivar's,1001 Alaskan Way,Seattle,WA,98104,
Ivar's,13448 Aurora Ave N,Seattle,WA,98133,
Ivar's,401 NE Northgate Way,Seattle,WA,98125,
Ivar's,6000 15th Ave NW,Seattle,WA,98107,
Jack in the Box,13055 Lake City Way NE,Seattle,WA,98125,Large
Jack in the Box,8502 Aurora Ave N,Seattle,WA,98103,Large
Jack in the Box,9102 Rainier Ave S,Seattle,WA,98118,Large
Jack in the Box,1907 4th Ave S,Seattle,WA,98134,Large
Jack in the Box,4203 SW Admiral Way,Seattle,WA,98116,Large
Jack in the Box,4749 University Way NE,Seattle,WA,98105,Large
Jack in the Box,5903 1st Ave S,Seattle,WA,98108,Large
Jack in the Box,999 Leary Way NW,Seattle,WA,98107,Large
Jamba Juice,2690 NE 49th Street,Seattle,WA,98105,Large
JCPenney,401 NE Northgate Way Ste 475,Seattle,WA,98125,Large
Jimmy John's,102 1st Ave S,Seattle,WA,98104,Large
Jimmy John's,1200 3rd Ave Ste 120,Seattle,WA,98101,Large
Jimmy John's,1221 Madison St,Seattle,WA,98104,Large
Jimmy John's,13242 Aurora Ave N Ste 105,Seattle,WA,98133,Large
Jimmy John's,1420 5th Ave,Seattle,WA,98101,Large
Jimmy John's,1629 6th Ave,Seattle,WA,98101,Large
Jimmy John's,1940 1st Ave S,Seattle,WA,98134,Large
Jimmy John's,370 Westlake Ave N,Seattle,WA,98109,Large
Jimmy John's,4141 University Way NE,Seattle,WA,98105,Large
Jimmy John's,507 NE Northgate Way,Seattle,WA,98125,Large
Jimmy John's,701 5th Ave Ste 211,Seattle,WA,98104,Large
KFC,10050 16th Ave SW,Seattle,WA,98146,Large
KFC,1140 NW Market St,Seattle,WA,98107,Large
KFC,13450 Aurora Ave N,Seattle,WA,98133,Large
KFC,3501 SW Avalon Way,Seattle,WA,98126,Large
Kidd Valley,14303 Aurora Ave N,Seattle,WA,98133,
Kidd Valley,4910 Green Lake Way N,Seattle,WA,98103,
Kidd Valley,5502 25th Ave NE,Seattle,WA,98105,
Krispy Kreme,12505 Aurora Ave N,Seattle,WA,98133,Large
Krispy Kreme,1900 1st Ave S,Seattle,WA,98134,Large
Little Caesar Pizza,10439 16th Ave SW,Seattle,WA,98146,Large
Little Caesar Pizza,3820 Rainier Ave S # 3,Seattle,WA,98118,Large
Little Caesar Pizza,8014 Lake City Way NE,Seattle,WA,98115,Large
Little Caesar Pizza,9776 Holman Rd NW Ste 111,Seattle,WA,98117,Large
Lowe's,12525 Aurora Ave N,Seattle,WA,98133,Large
McDonald's,400 Pine St,Seattle,WA,98101,Large
McDonald's,9304 Rainier Ave S,Seattle,WA,98118,Large
McDonald's,1122 Madison St,Seattle,WA,98104,Large
McDonald's,1516 SW 114th St,Seattle,WA,98146,Large
McDonald's,1530 3rd Ave,Seattle,WA,98101,Large
McDonald's,1601 5th Ave Spc 353,Seattle,WA,98101,Large
McDonald's,1950 6th Ave,Seattle,WA,98101,Large
McDonald's,2147 N Northgate Way,Seattle,WA,98133,Large
McDonald's,222 5th Ave N,Seattle,WA,98109,Large
McDonald's,2336 25th Ave S,Seattle,WA,98144,Large
McDonald's,2401 4th Ave S,Seattle,WA,98134,Large
McDonald's,3003 California Ave SW,Seattle,WA,98116,Large
McDonald's,5146 25th Ave NE,Seattle,WA,98105,Large
McDonald's,5400 14th Ave NW,Seattle,WA,98107,Large
McDonald's,6145 4th Ave S,Seattle,WA,98108,Large
McDonald's,6305 Martin Luther King Jr Way S,Seattle,WA,98118,Large
McDonald's,6546 California Ave SW,Seattle,WA,98136,Large
McDonald's,801 Alaskan Way,Seattle,WA,98104,Large
McDonald's,9000 Holman Rd NW,Seattle,WA,98117,Large
McDonald's,9610 Des Moines Memorial Dr,Seattle,WA,98108,Large
McDonald's,2580 SW Barton St,Seattle,WA,98126,Large
Menchie's Frozen Yogurt,2101 Queen Anne Ave N,Seattle,WA,98109,Large
Menchie's Frozen Yogurt,2620 California Ave SW 400,Seattle,WA,98116,Large
Menchie's Frozen Yogurt,3411 W Mcgraw St,Seattle,WA,98199,Large
Menchie's Frozen Yogurt,4609 Village Ct NE,Seattle,WA,98105,Large
Menchie's Frozen Yogurt,507 Broadway E,Seattle,WA,98102,Large
Mrs. Fields Cookies,400 Pine St Ste 301,Seattle,WA,98101,Large
Nordstrom,500 Pine St,Seattle,WA,98101,Large
Nordstrom,401 NE Northgate Way,Seattle,WA,98125,Large
Nordstrom Rack,400 Pine St,Seattle,WA,98101,Large
Nordstrom Rack,401 NE Northgate Way Ste 304,Seattle,WA,98125,Large
Orange Julius,305 Harrison St,Seattle,WA,98109,Large
Pagliacci Pizza,851 NW 85th St,Seattle,WA,98117,
Pagliacci Pizza,426 Broadway E,Seattle,WA,98102,
Pagliacci Pizza,2400 10th Ave E,Seattle,WA,98102,
Pagliacci Pizza,315 N 145th St,Seattle,WA,98133,
Pagliacci Pizza,8024 15th Ave NE,Seattle,WA,98115,
Pagliacci Pizza,3015 E Madison St,Seattle,WA,98112,
Pagliacci Pizza,1614 W Dravus St,Seattle,WA,98119,
Pagliacci Pizza,550 Queen Anne Ave N,Seattle,WA,98109,
Pagliacci Pizza,719 Aurora Ave N,Seattle,WA,98109,
Pagliacci Pizza,6224 Sand Point Way NE,Seattle,WA,98115,
Pagliacci Pizza,4529 University Way NE,Seattle,WA,98105,
Pagliacci Pizza,4003 Stone Way N,Seattle,WA,98103,
Pagliacci Pizza,4449 California Ave SW,Seattle,WA,98116,
Panda Express,9999 Holman Rd NW,Seattle,WA,98117,Large
Panda Express,12513 Lake City Way NE,Seattle,WA,98125,Large
Panda Express,555 Northgate Mall Spc 413,Seattle,WA,98125,Large
Panera Bread,1620 Broadway Ste 100A,Seattle,WA,98122,Large
Panera Bread,401 NE Northgate Way,Seattle,WA,98125,Large
Papa John's,5252 California Ave SW,Seattle,WA,98136,Large
Papa John's,5401C 25th Ave NE,Seattle,WA,98105,Large
Papa John's,9000 Holman Rd NW,Seattle,WA,98117,Large
Papa Murphy's,11202 16th Ave SW,Seattle,WA,98146,Large
Papa Murphy's,3000 NE 127th St,Seattle,WA,98125,Large
Papa Murphy's,306 23rd Ave S,Seattle,WA,98144,Large
Papa Murphy's,4730 42nd Ave SW,Seattle,WA,98116,Large
Papa Murphy's,9743 Holman Rd NW,Seattle,WA,98117,Large
Peet's Coffee,1023 3rd Ave,Seattle,WA,98104,Large
Peet's Coffee,1833 Broadway,Seattle,WA,98122,Large
Peet's Coffee,1827 15th Ave W,Seattle,WA,98119,Large
Peet's Coffee,3401 Fremont Ave N,Seattle,WA,98103,Large
Peet's Coffee,6850 E Green Lake Way N,Seattle,WA,98115,Large
Pizza Hut,302 NE Northgate Way,Seattle,WA,98125,Large
Pizza Hut,14346 15th Ave NE,Seattle,WA,98125,Large
Pizza Hut,1505 NE 65th St,Seattle,WA,98115,Large
Pizza Hut,1517 SW 104th St,Seattle,WA,98146,Large
Pizza Hut,2231 Queen Anne Ave N,Seattle,WA,98109,Large
Pizza Hut,2743 E Madison St,Seattle,WA,98112,Large
Pizza Hut,3642 33rd Ave S Ste C6,Seattle,WA,98144,Large
Pizza Hut,6501 35th Ave SW,Seattle,WA,98126,Large
Pizza Hut,8525 15th Ave NW,Seattle,WA,98117,Large
Potbelly Sandwich Works,1111 3rd Ave # 1,Seattle,WA,98101,Large
Potbelly Sandwich Works,1208 Madison St # 121,Seattle,WA,98104,Large
Potbelly Sandwich Works,1429 4th Ave,Seattle,WA,98101,Large
Qdoba,10002 Aurora Ave N,Seattle,WA,98133,Large
Qdoba,1200 NE 45th St,Seattle,WA,98105,Large
Qdoba,217 Pike St,Seattle,WA,98101,Large
QFC,1401 Broadway,Seattle,WA,98122,Large
QFC,417 Broadway E,Seattle,WA,98102,Large
QFC,416 15th Ave E,Seattle,WA,98112,Large
QFC,500 Mercer St,Seattle,WA,98109,Large
QFC,2707 Rainier Ave S,Seattle,WA,98144,Large
QFC,1600 W Dravus St,Seattle,WA,98119,Large
QFC,4550 42nd Ave SW,Seattle,WA,98116,Large
QFC,1801 N 45th St,Seattle,WA,98103,Large
QFC,2746 NE 45th St,Seattle,WA,98105,Large
QFC,5700 24th Ave NW,Seattle,WA,98107,Large
QFC,2500 SW Barton,Seattle,WA,98106,Large
QFC,8400 35th Ave NE,Seattle,WA,98115,Large
QFC,9999 Holman Road NW,Seattle,WA,98117,Large
QFC,11100 Roosevelt Way NE,Seattle,WA,98125,Large
QFC,13000 Lake City Way NE,Seattle,WA,98125,Large
QFC,1531 NE 145th St,Seattle,WA,98155,Large
Quizno's,300 NE Northgate Way,Seattle,WA,98125,Large
Quizno's,411 23rd Ave S,Seattle,WA,98144,Large
Quizno's,412 NE 70th St,Seattle,WA,98115,Large
Quizno's,821 1st Ave,Seattle,WA,98104,Large
Red Mango,405 Union St,Seattle,WA,98101,Large
Red Mango,2619 NE University Vlg,Seattle,WA,98105,Large
Red Mango,600 Pine St,Seattle,WA,98101,Large
Red Robin,401 NE Northgate Way Spc 430,Seattle,WA,98125,Large
Roy Street Coffee,700 Broadway E,Seattle,WA,98102,Large
Safeway,1410 E John St,Seattle,WA,98112,Large
Safeway,2201 E Madison St,Seattle,WA,98122,Large
Safeway,516 1st Ave W,Seattle,WA,98119,Large
Safeway,2100 Queen Anne Ave N,Seattle,WA,98109,Large
Safeway,2622 California Ave W,Seattle,WA,98116,Large
Safeway,3820 Rainier Ave S,Seattle,WA,98118,Large
Safeway,4754 42nd Ave SW,Seattle,WA,98116,Large
Safeway,4732 Brooklyn Ave NE,Seattle,WA,98105,Large
Safeway,3020 NE 45th St,Seattle,WA,98105,Large
Safeway,1423 NW Market St,Seattle,WA,98107,Large
Safeway,7300 Roosevelt Way NE,Seattle,WA,98115,Large
Safeway,3900 S Othello St,Seattle,WA,98118,Large
Safeway,7340 35th Ave NE,Seattle,WA,98115,Large
Safeway,8704 Greenwood Ave N,Seattle,WA,98103,Large
Safeway,8340 15th Ave NW,Seattle,WA,98117,Large
Safeway,9620 28th Ave SW,Seattle,WA,98126,Large
Safeway,9262 Rainier Ave S,Seattle,WA,98118,Large
Safeway,12318 15th Ave NE,Seattle,WA,98125,Large
Sbarro,400 Pine St,Seattle,WA,98101,Large
Sbarro,555 Northgate Mall,Seattle,WA,98125,Large
Specialty's Cafe & Bakery,1023 3rd Ave,Seattle,WA,98104,Large
Specialty's Cafe & Bakery,1400 5th Ave,Seattle,WA,98101,Large
Specialty's Cafe & Bakery,1918 8th Ave,Seattle,WA,98101,Large
Specialty's Cafe & Bakery,2690 NE Village Ln,Seattle,WA,98105,Large
Specialty's Cafe & Bakery,520 Terry Ave N,Seattle,WA,98109,Large
Specialty's Cafe & Bakery,701 5th Ave 101,Seattle,WA,98104,Large
Specialty's Cafe & Bakery,904 7th Ave,Seattle,WA,98104,Large
Starbucks,101 Yesler Way,Seattle,WA,98104,Large
Starbucks,1215 Dexter Ave N,Seattle,WA,98109,Large
Starbucks,12318 15th Ave NE,Seattle,WA,98125,Large
Starbucks,1301 3rd Ave,Seattle,WA,98101,Large
Starbucks,1325 4th Ave,Seattle,WA,98101,Large
Starbucks,1401 Broadway,Seattle,WA,98122,Large
Starbucks,1410 E John St,Seattle,WA,98112,Large
Starbucks,1419 3rd Ave,Seattle,WA,98101,Large
Starbucks,1423 NW Market St,Seattle,WA,98107,Large
Starbucks,1600 W Dravus St,Seattle,WA,98119,Large
Starbucks,17847 1st Ave S,Seattle,WA,98148,Large
Starbucks,1801 N 45th St,Seattle,WA,98103,Large
Starbucks,2100 Queen Anne Ave N,Seattle,WA,98109,Large
Starbucks,2121 Terry Ave,Seattle,WA,98121,Large
Starbucks,2143 N Northgate Way,Seattle,WA,98133,Large
Starbucks,2200 NW Market St,Seattle,WA,98107,Large
Starbucks,2201 E Madison St,Seattle,WA,98112,Large
Starbucks,2500 SW Barton St,Seattle,WA,98126,Large
Starbucks,2622 California Ave SW,Seattle,WA,98116,Large
Starbucks,2707 Rainier Ave S,Seattle,WA,98144,Large
Starbucks,2746 NE 45th St,Seattle,WA,98105,Large
Starbucks,312 N 67th St,Seattle,WA,98103,Large
Starbucks,3300 W McGraw St,Seattle,WA,98199,Large
Starbucks,3820 Rainier Ave S,Seattle,WA,98118,Large
Starbucks,3900 S Othello St,Seattle,WA,98118,Large
Starbucks,4100 SW Alaska St,Seattle,WA,98116,Large
Starbucks,417 Broadway E,Seattle,WA,98102,Large
Starbucks,425 Broadway E,Seattle,WA,98102,Large
Starbucks,4400 11th Ave NW,Seattle,WA,98107,Large
Starbucks,4754 42nd Ave SW,Seattle,WA,98116,Large
Starbucks,500 Mercer St,Seattle,WA,98109,Large
Starbucks,502 2nd Ave,Seattle,WA,98104,Large
Starbucks,516 1st Ave N,Seattle,WA,98109,Large
Starbucks,5700 24th Ave NW,Seattle,WA,98107,Large
Starbucks,7300 Roosevelt Way NE,Seattle,WA,98115,Large
Starbucks,7340 35th Ave NE,Seattle,WA,98115,Large
Starbucks,811 1st Ave,Seattle,WA,98104,Large
Starbucks,8340 15th Ave NW,Seattle,WA,98117,Large
Starbucks,8704 Greenwood Ave N,Seattle,WA,98103,Large
Starbucks,9262 Rainier Ave S,Seattle,WA,98118,Large
Starbucks,9620 28th Ave SW,Seattle,WA,98126,Large
Starbucks,9999 Holman Rd NW,Seattle,WA,98117,Large
Starbucks,1000 2nd Ave,Seattle,WA,98104,Large
Starbucks,10002 Aurora Ave N,Seattle,WA,98133,Large
Starbucks,102 1st Ave S,Seattle,WA,98104,Large
Starbucks,102 Pike St,Seattle,WA,98101,Large
Starbucks,1101 Alaskan Way Ste 102,Seattle,WA,98101,Large
Starbucks,1101 Madison St,Seattle,WA,98104,Large
Starbucks,1111 3rd Ave 2730,Seattle,WA,98101,Large
Starbucks,1125 4th Ave,Seattle,WA,98101,Large
Starbucks,1144 Elliott Ave W,Seattle,WA,98119,Large
Starbucks,1191 2nd Ave,Seattle,WA,98101,Large
Starbucks,1200 Westlake Ave N,Seattle,WA,98109,Large
Starbucks,12001 Lake City Way NE,Seattle,WA,98125,Large
Starbucks,121 Lakeside Ave,Seattle,WA,98122,Large
Starbucks,1211 Dexter Ave N,Seattle,WA,98109,Large
Starbucks,1301 2nd Ave 200,Seattle,WA,98101,Large
Starbucks,1301 Madison St,Seattle,WA,98104,Large
Starbucks,13025 Aurora Ave N,Seattle,WA,98133,Large
Starbucks,1318 4th Ave,Seattle,WA,98101,Large
Starbucks,1401 2nd Ave,Seattle,WA,98101,Large
Starbucks,1420 5th Ave,Seattle,WA,98101,Large
Starbucks,14330 Lake City Way NE,Seattle,WA,98125,Large
Starbucks,14359 15th Ave NE,Seattle,WA,98125,Large
Starbucks,1501 4th Ave,Seattle,WA,98101,Large
Starbucks,1524 7th Ave,Seattle,WA,98101,Large
Starbucks,1600 E Jefferson St,Seattle,WA,98122,Large
Starbucks,1600 E Olive Way,Seattle,WA,98102,Large
Starbucks,1607 W Dravus St,Seattle,WA,98119,Large
Starbucks,1700 7th Ave,Seattle,WA,98101,Large
Starbucks,1730 Minor Ave,Seattle,WA,98101,Large
Starbucks,1912 Pike Pl,Seattle,WA,98101,Large
Starbucks,1962 1st Ave S,Seattle,WA,98134,Large
Starbucks,200 University St,Seattle,WA,98101,Large
Starbucks,2001 8th Ave Ste 100,Seattle,WA,98121,Large
Starbucks,211 Lenora St,Seattle,WA,98121,Large
Starbucks,2110 N 45th St,Seattle,WA,98103,Large
Starbucks,2135 Queen Anne Ave N,Seattle,WA,98109,Large
Starbucks,2137 N Northgate Way,Seattle,WA,98133,Large
Starbucks,2200 Alaskan Way,Seattle,WA,98121,Large
Starbucks,2200 Westlake Ave,Seattle,WA,98121,Large
Starbucks,2204 NW Market St,Seattle,WA,98107,Large
Starbucks,221 Pike St,Seattle,WA,98101,Large
Starbucks,2300 S Jackson St,Seattle,WA,98144,Large
Starbucks,2326 1st Ave,Seattle,WA,98121,Large
Starbucks,2344 Eastlake Ave E,Seattle,WA,98102,Large
Starbucks,2401 Utah Ave S,Seattle,WA,98134,Large
Starbucks,2433 5th Ave W,Seattle,WA,98119,Large
Starbucks,2650 NE 49th St,Seattle,WA,98105,Large
Starbucks,2742 Alki Ave SW,Seattle,WA,98116,Large
Starbucks,2921 Martin Luther King Jr Way S,Seattle,WA,98144,Large
Starbucks,305 Harrison St,Seattle,WA,98109,Large
Starbucks,328 15th Ave E,Seattle,WA,98112,Large
Starbucks,330 Westlake Ave N,Seattle,WA,98109,Large
Starbucks,3415 Fremont Ave N,Seattle,WA,98103,Large
Starbucks,400 Occidental Ave S,Seattle,WA,98104,Large
Starbucks,400 Pine St Ste 42,Seattle,WA,98101,Large
Starbucks,4000 E Madison St,Seattle,WA,98112,Large
Starbucks,401 NE Northgate Way,Seattle,WA,98125,Large
Starbucks,4101 SW Admiral Way,Seattle,WA,98116,Large
Starbucks,4115 4th Ave S,Seattle,WA,98134,Large
Starbucks,4147 University Way NE,Seattle,WA,98105,Large
Starbucks,425 Queen Anne Ave N,Seattle,WA,98109,Large
Starbucks,434 Broadway E,Seattle,WA,98102,Large
Starbucks,4408 Fauntleroy Way SW,Seattle,WA,98126,Large
Starbucks,442 Terry Ave N,Seattle,WA,98109,Large
Starbucks,4555 University Way NE,Seattle,WA,98105,Large
Starbucks,4820 Rainier Ave S,Seattle,WA,98118,Large
Starbucks,505 5th Ave S,Seattle,WA,98104,Large
Starbucks,515 Pine St,Seattle,WA,98101,Large
Starbucks,540 NE Northgate Way,Seattle,WA,98125,Large
Starbucks,550 17th Ave,Seattle,WA,98122,Large
Starbucks,5963 Corson Ave S Ste 184,Seattle,WA,98108,Large
Starbucks,600 Pine St,Seattle,WA,98101,Large
Starbucks,600 Stewart St,Seattle,WA,98101,Large
Starbucks,6310 Martin Luther King Jr Way S,Seattle,WA,98118,Large
Starbucks,6417 Roosevelt Way NE,Seattle,WA,98115,Large
Starbucks,6501 California Ave SW,Seattle,WA,98136,Large
Starbucks,700 5th Ave,Seattle,WA,98104,Large
Starbucks,701 5th Ave,Seattle,WA,98104,Large
Starbucks,7100 E Green Lake Dr N,Seattle,WA,98115,Large
Starbucks,7303 35th Ave NE,Seattle,WA,98115,Large
Starbucks,800 12th Ave,Seattle,WA,98122,Large
Starbucks,800 5th Ave # L901,Seattle,WA,98104,Large
Starbucks,823 1st Ave,Seattle,WA,98104,Large
Starbucks,824 E Pike St,Seattle,WA,98122,Large
Starbucks,9023 25th Ave SW,Seattle,WA,98106,Large
Starbucks,999 3rd Ave,Seattle,WA,98104,Large
Stumptown Coffee,1115 12th Ave,Seattle,WA,98122,
Stumptown Coffee,616 E Pine St,Seattle,WA,98122,
Subway,10000 Aurora Ave N 2,Seattle,WA,98133,Large
Subway,10400 Greenwood Ave N,Seattle,WA,98133,Large
Subway,12248 Aurora Ave N Ste B,Seattle,WA,98133,Large
Subway,12500 Lake City Way NE,Seattle,WA,98125,Large
Subway,1300 N 34th St,Seattle,WA,98103,Large
Subway,2344 Eastlake Ave E,Seattle,WA,98102,Large
Subway,2309 N 45th St,Seattle,WA,98103,Large
Subway,327 NE Thornton Pl,Seattle,WA,98125,Large
Subway,3307 3rd Ave W,Seattle,WA,98119,Large
Subway,100 4th Ave N Ste 120,Seattle,WA,98109,Large
Subway,1027 NE 65th St,Seattle,WA,98115,Large
Subway,103 Yesler Way,Seattle,WA,98104,Large
Subway,10406 16th Ave SW,Seattle,WA,98146,Large
Subway,106 Pike St,Seattle,WA,98101,Large
Subway,1105 Madison St,Seattle,WA,98104,Large
Subway,1220 Howell St,Seattle,WA,98101,Large
Subway,12354 15th Ave NE Ste C,Seattle,WA,98125,Large
Subway,1414 3rd Ave,Seattle,WA,98101,Large
Subway,1620 4th Ave,Seattle,WA,98101,Large
Subway,1633 Westlake Ave N,Seattle,WA,98109,Large
Subway,1800 8th Ave,Seattle,WA,98101,Large
Subway,1827 15th Ave W Ste A12,Seattle,WA,98119,Large
Subway,2002 Fairview Ave,Seattle,WA,98121,Large
Subway,206 Broadway E,Seattle,WA,98102,Large
Subway,2207 E Madison St,Seattle,WA,98112,Large
Subway,2301 S Jackson St,Seattle,WA,98144,Large
Subway,2338 Rainier Ave S,Seattle,WA,98144,Large
Subway,2423 2nd Ave,Seattle,WA,98121,Large
Subway,25 W Mercer St,Seattle,WA,98119,Large
Subway,2727 4th Ave S,Seattle,WA,98134,Large
Subway,2758 Alki Ave SW,Seattle,WA,98116,Large
Subway,2822 Western Ave,Seattle,WA,98121,Large
Subway,305 Harrison St,Seattle,WA,98109,Large
Subway,305 Lenora St,Seattle,WA,98121,Large
Subway,3320 W McGraw St,Seattle,WA,98199,Large
Subway,345 15th Ave E Ste 101,Seattle,WA,98112,Large
Subway,3829 Delridge Way SW Ste 205,Seattle,WA,98106,Large
Subway,401 NE Northgate Way Spc VC3,Seattle,WA,98125,Large
Subway,4215 University Way NE,Seattle,WA,98105,Large
Subway,4336 Roosevelt Way NE # D/E,Seattle,WA,98105,Large
Subway,4712 42nd Ave SW,Seattle,WA,98116,Large
Subway,4822 Rainier Ave S,Seattle,WA,98118,Large
Subway,501 Seneca St,Seattle,WA,98101,Large
Subway,5300 15th Ave NW,Seattle,WA,98107,Large
Subway,5401 25th Ave NE,Seattle,WA,98105,Large
Subway,5603 4th Ave S,Seattle,WA,98108,Large
Subway,6515 California Ave SW,Seattle,WA,98136,Large
Subway,6760 W Marginal Way SW,Seattle,WA,98106,Large
Subway,6850 E Green Lake Way N Ste 102,Seattle,WA,98115,Large
Subway,725 Pike St,Seattle,WA,98101,Large
Subway,7347 35th Ave NE Ste F,Seattle,WA,98115,Large
Subway,801 Alaskan Way,Seattle,WA,98104,Large
Subway,8014 Lake City Way NE Ste C,Seattle,WA,98115,Large
Subway,806 12th Ave,Seattle,WA,98122,Large
Subway,806 3rd Ave,Seattle,WA,98104,Large
Subway,811 E Pike St,Seattle,WA,98122,Large
Subway,8757 Holman Rd NW Ste D,Seattle,WA,98117,Large
Subway,8819 14th Ave S,Seattle,WA,98108,Large
Subway,9305 Rainier Ave S,Seattle,WA,98118,Large
Subway,951 James St,Seattle,WA,98104,Large
Subway,97 Denny Way,Seattle,WA,98109,Large
Taco Bell/KFC,210 W Mercer St,Seattle,WA,98119,Large
Taco Bell/KFC,2201 4th Ave S,Seattle,WA,98134,Large
Taco Bell/KFC,3820 Rainier Ave S Ste K,Seattle,WA,98118,Large
Taco Bell/KFC,9401 Rainier Ave S,Seattle,WA,98118,Large
Taco Bell,10711 16th Ave SW,Seattle,WA,98146,Large
Taco Bell,1110 N 90th St,Seattle,WA,98103,Large
Taco Bell,401 NE Northgate Way,Seattle,WA,98125,Large
Taco Bell,5918 15th Ave NW,Seattle,WA,98107,Large
Taco Del Mar,1033 NE 65th St,Seattle,WA,98115,Large
Taco Del Mar,107 1st Ave S,Seattle,WA,98104,Large
Taco Del Mar,11016 8th Ave NE,Seattle,WA,98125,Large
Taco Del Mar,1165 Harrison St,Seattle,WA,98109,Large
Taco Del Mar,1205 Dexter Ave N,Seattle,WA,98109,Large
Taco Del Mar,1313 NE 42nd St,Seattle,WA,98105,Large
Taco Del Mar,1620 4th Ave,Seattle,WA,98101,Large
Taco Del Mar,1900 9th Ave,Seattle,WA,98101,Large
Taco Del Mar,2136 1st Ave,Seattle,WA,98121,Large
Taco Del Mar,2309 S Jackson St # 202,Seattle,WA,98144,Large
Taco Del Mar,2600 SW Barton St,Seattle,WA,98126,Large
Taco Del Mar,2932 4th Ave S,Seattle,WA,98134,Large
Taco Del Mar,411 Cedar St,Seattle,WA,98121,Large
Taco Del Mar,4720 42nd Ave SW,Seattle,WA,98116,Large
Taco Del Mar,6101 15th Ave NW,Seattle,WA,98107,Large
Taco Del Mar,725 Pike St,Seattle,WA,98101,Large
Taco Del Mar,8004 Greenwood Ave N,Seattle,WA,98103,Large
Taco Del Mar,823 3rd Ave Ste 100,Seattle,WA,98104,Large
Taco Del Mar,830 NE Northgate Way,Seattle,WA,98125,Large
Taco Del Mar,908 Stewart St,Seattle,WA,98101,Large
Taco Time,10055 16th Ave SW,Seattle,WA,98146,Large
Taco Time,1140 Elliott Ave W,Seattle,WA,98119,Large
Taco Time,14300 Aurora Ave N,Seattle,WA,98133,Large
Taco Time,2212 N 45th St,Seattle,WA,98103,Large
Taco Time,2212 Rainier Ave S,Seattle,WA,98144,Large
Taco Time,2853 NW Market St,Seattle,WA,98107,Large
Taco Time,3500 SW Avalon Way,Seattle,WA,98126,Large
Taco Time,555 NE Northgate Way,Seattle,WA,98125,Large
Taco Time,6442 E Marginal Way S,Seattle,WA,98108,Large
Tacos Guaymas,100 N 36th St,Seattle,WA,98103,
Tacos Guaymas,1303 1st Ave,Seattle,WA,98101,
Tacos Guaymas,1415 Broadway,Seattle,WA,98122,
Tacos Guaymas,6808 E Green Lake Way N,Seattle,WA,98115,
Target,1401 2nd Ave,Seattle,WA,98101,Large
Target,2800 SW Barton St,Seattle,WA,98126,Large
Target,302 NE Northgate Way,Seattle,WA,98125,Large
TCBY,1420 5th Ave,Seattle,WA,98101,Large
Top Pot Doughnuts,1416 NW 46th St,Seattle,WA,98107,
Top Pot Doughnuts,2124 5th Ave,Seattle,WA,98121,
Top Pot Doughnuts,325 W Galer St,Seattle,WA,98119,
Top Pot Doughnuts,590 Terry Ave N,Seattle,WA,98109,
Top Pot Doughnuts,609 Summit Ave E,Seattle,WA,98102,
Top Pot Doughnuts,6845 35th Ave NE,Seattle,WA,98115,
Top Pot Doughnuts,720 3rd Ave,Seattle,WA,98104,
Trabant Coffee & Chai,1309 NE 45th St,Seattle,WA,98105,Small
Trabant Coffee & Chai,602 2nd Ave,Seattle,WA,98104,Small
Trader Joe's,4545 Fauntleroy Way SW,Seattle,WA,98116,Large
Trader Joe's,1700 Madison St,Seattle,WA,98122,Large
Trader Joe's,1916 Queen Anne Ave N,Seattle,WA,98109,Large
Trader Joe's,4609 14th Ave NW,Seattle,WA,98107,Large
Trader Joe's,4555 Roosevelt Way NE,Seattle,WA,98105,Large
Trophy Cupcakes,1815 N 45th St Ste 209,Seattle,WA,98103,Small
Trophy Cupcakes,2612 NE Village Ln,Seattle,WA,98105,Small
Trophy Cupcakes,600 Pine St,Seattle,WA,98101,Small
Tully's,3042 NE 45th St,Seattle,WA,98105,Large
Tully's,915 NW 45th St,Seattle,WA,98107,Large
Tully's,13050 Aurora Ave N,Seattle,WA,98133,Large
Tully's,101 Nickerson St Ste 200,Seattle,WA,98109,Large
Tully's,1401 4th Ave,Seattle,WA,98101,Large
Tully's,150 W Harrison St,Seattle,WA,98119,Large
Tully's,1601 5th Ave,Seattle,WA,98101,Large
Tully's,2001 Western Ave Ste 110A,Seattle,WA,98121,Large
Tully's,2676 Alki Ave SW,Seattle,WA,98116,Large
Tully's,3100 Airport Way S,Seattle,WA,98134,Large
Tully's,400 2nd Avenue Ext S,Seattle,WA,98104,Large
Tully's,4507 Brooklyn Ave NE,Seattle,WA,98105,Large
Tully's,601 Union St,Seattle,WA,98101,Large
Tully's,625 5th Ave S,Seattle,WA,98104,Large
Tully's,701 5th Ave,Seattle,WA,98104,Large
Tully's,746 19th Ave E,Seattle,WA,98112,Large
Tully's,800 Convention Pl,Seattle,WA,98101,Large
Tully's,821 2nd Ave,Seattle,WA,98104,Large
Tully's,824 E Pike St,Seattle,WA,98122,Large
Tully's,925 Seneca St,Seattle,WA,98101,Large
Uptown Espresso,2300 N 45th St,Seattle,WA,98103,Small
Uptown Espresso,2504 4th Ave,Seattle,WA,98121,Small
Uptown Espresso,2801 Alaskan Way,Seattle,WA,98121,Small
Uptown Espresso,3223 W Mcgraw St,Seattle,WA,98199,Small
Uptown Espresso,3845 Delridge Way SW,Seattle,WA,98106,Small
Uptown Espresso,4301 SW Edmunds St,Seattle,WA,98116,Small
Uptown Espresso,500 Westlake Ave N,Seattle,WA,98109,Small
Uptown Espresso,525 Queen Anne Ave N,Seattle,WA,98109,Small
Victrola Coffee,310 E Pike St,Seattle,WA,98122,Small
Victrola Coffee,3215 Beacon Ave S,Seattle,WA,98144,Small
Victrola Coffee,411 15th Ave E,Seattle,WA,98112,Small
Wendy's,11744 Lake City Way NE,Seattle,WA,98125,Large
Wendy's,5315 15th Ave NW,Seattle,WA,98107,Large
Wendy's,15010 Pacific Hwy,Seattle,WA,98188,Large
Wendy's,2543 Rainier Ave S,Seattle,WA,98144,Large
Yogurtland,1620 Broadway,Seattle,WA,98122,Large
Zeek's Pizza,419 Denny Way,Seattle,WA,98109,
Zeek's Pizza,41 Dravus St,Seattle,WA,98109,
Zeek's Pizza,7900 E Greenlake Drive N,Seattle,WA,98103,
Zeek's Pizza,6000 Phinney Ave N,Seattle,WA,98103,
Zeek's Pizza,1915 Queen Anne Ave N,Seattle,WA,98119,
Zeek's Pizza,2108 NE 65th St,Seattle,WA,98105,
Zeek's Pizza,6459 California Avenue SW,Seattle,WA,98136,
